ONEWEB-0350             
1 49214U 21083AE  24128.50730902  .00000006  00000+0 -18056-4 0  9997
2 49214  87.8898 113.6276 0002331  80.6136 279.5257 13.13471250129768
ONEWEB-0351             
1 49215U 21083AF  24128.35809512  .00000044  00000+0  75590-4 0  9992
2 49215  87.9202  67.8172 0002044 109.4746 250.6608 13.20770591135026
ONEWEB-0352             
1 49216U 21083AG  24128.48827288  .00000404  00000+0  10708-2 0  9995
2 49216  87.8900 113.6613 0002099  94.9224 265.2145 13.13471015129853
ONEWEB-0354             
1 49217U 21083AH  24128.53500668  .00000136  00000+0  30213-3 0  9998
2 49217  87.9205  67.7655 0002372  79.5244 280.6156 13.20771871135089
ONEWEB-0355             
1 49218U 21083AJ  24128.51842092 -.00000233  00000+0 -67273-3 0  9993
2 49218  87.8901 113.6542 0002190  88.7823 271.3557 13.13470914129734
ONEWEB-0357             
1 49219U 21083AK  24128.53184136  .00000085  00000+0  17698-3 0  9993
2 49219  87.9204  67.7858 0002215  86.0985 274.0402 13.20770102135083
ONEWEB-0332             
1 49279U 21090A   24128.37383096 -.00000067  00000+0 -21476-3 0  9996
2 49279  87.8942  83.0939 0001787  92.4187 267.7147 13.14504473126316
ONEWEB-0347             
1 49280U 21090B   24128.37086533  .00000101  00000+0  21577-3 0  9993
2 49280  87.9206  67.8157 0001723  92.9951 267.1380 13.20771819129298
